BEIDOU-2 IGSO-1 (C06)   
1 36828U 10036A   26064.71564830 -.00000126  00000+0  00000+0 0  9997
2 36828  54.2927 163.8986 0054017 218.9744 143.1840  1.00252203 57065
BEIDOU-2 G4 (C04)       
1 37210U 10057A   26065.25674201 -.00000116  00000+0  00000+0 0  9999
2 37210   3.3914  69.5422 0008830 211.7319 135.1426  1.00272334 56258
BEIDOU-2 IGSO-2 (C07)   
1 37256U 10068A   26063.55016868 -.00000178  00000+0  00000+0 0  9999
2 37256  47.7317 273.1244 0047330 213.1251 341.1802  1.00258965 55745
BEIDOU-2 IGSO-3 (C08)   
1 37384U 11013A   26058.90884667 -.00000154  00000+0  00000+0 0  9999
2 37384  62.2642  41.1818 0035029 190.8154 358.7681  1.00294022 54567
BEIDOU-2 IGSO-4 (C09)   
1 37763U 11038A   26064.72437745 -.00000100  00000+0  00000+0 0  9996
2 37763  54.5899 166.6081 0154581 230.9953 121.0281  1.00265577 53603
BEIDOU-2 IGSO-5 (C10)   
1 37948U 11073A   26063.54783174 -.00000153  00000+0  00000+0 0  9997
2 37948  47.8676 272.8369 0108588 221.1171 320.7210  1.00272598 52087
BEIDOU-2 G5 (C05)       
1 38091U 12008A   26065.09406797  .00000051  00000+0  00000+0 0  9997
2 38091   3.3168  70.3057 0014017 251.3989 294.8001  1.00277131 51334
BEIDOU-2 M3 (C11)       
1 38250U 12018A   26064.01894681 -.00000067  00000+0  00000+0 0  9997
2 38250  55.8459 308.3876 0021147 279.6506  80.1690  1.86229821 94007
BEIDOU-2 M4 (C12)       
1 38251U 12018B   26062.87717712 -.00000061  00000+0  00000+0 0  9993
2 38251  55.7474 307.6486 0012644 286.4281  73.4931  1.86229513 93988
BEIDOU-2 M6 (C14)       
1 38775U 12050B   26063.66128696 -.00000027  00000+0  00000+0 0  9997
2 38775  56.4533  66.3489 0013968 341.8059  18.1670  1.86230964 91362
BEIDOU-2 G6 (C02)       
1 38953U 12059A   26063.10227411 -.00000185  00000+0  00000+0 0  9993
2 38953   4.1554  74.6500 0010671 304.2337 263.7683  1.00269514 48856
BEIDOU-3S IGSO-1S (C31) 
1 40549U 15019A   26064.60236146 -.00000165  00000+0  00000+0 0  9995
2 40549  49.3881 296.7093 0035816 190.5073 349.4480  1.00273608 40037
BEIDOU-3S M2S (C58)     
1 40748U 15037A   26064.15514271 -.00000065  00000+0  00000+0 0  9993
2 40748  54.9621 305.6294 0008821 278.3568  81.6004  1.86231809 72184
BEIDOU-3S M1S (C57)     
1 40749U 15037B   26061.69084880 -.00000053  00000+0  00000+0 0  9995
2 40749  54.9610 305.7025 0004647  29.9008 330.1863  1.86253746 72142
BEIDOU-2 IGSO-6 (C13)   
1 41434U 16021A   26064.88739605 -.00000151  00000+0  00000+0 0  9996
2 41434  60.0887  39.0631 0059800 233.3984 306.3504  1.00278373 36442
BEIDOU-2 G7 (C03)       
1 41586U 16037A   26065.31818896 -.00000357  00000+0  00000+0 0  9998
2 41586   1.4664  68.2345 0007835 342.6019 338.2198  1.00266589  5852
BEIDOU-3 M1 (C19)       
1 43001U 17069A   26063.96368704 -.00000029  00000+0  00000+0 0  9991
2 43001  56.6017  66.5157 0012381 309.6653  50.2473  1.86231070 56664
